STARLINK-35819          
1 66285U 25247W   25329.08642715  .00090896  00000+0  16214-2 0  9998
2 66285  53.1590 320.4894 0001378 104.5487 255.5675 15.49344448  4971
STARLINK-35783          
1 66286U 25247X   25329.08610647  .00137119  00000+0  24318-2 0  9992
2 66286  53.1591 320.4854 0000699  97.8328 262.2760 15.49292987  4972
STARLINK-34884          
1 66287U 25247Y   25329.08572370  .00018354  00000+0  33681-3 0  9996
2 66287  53.1592 320.4835 0001557  89.1758 270.9429 15.49350090  4976
STARLINK-34896          
1 66288U 25247Z   25329.08539411  .00112553  00000+0  20000-2 0  9992
2 66288  53.1591 320.4814 0001274 102.6608 257.4544 15.49348102  4973
STARLINK-35802          
1 66289U 25247AA  25329.08505247  .00079616  00000+0  14235-2 0  9998
2 66289  53.1588 320.4794 0001287  89.3997 270.7159 15.49338125  4977
STARLINK-35799          
1 66290U 25247AB  25329.02019981  .00077878  00000+0  13917-2 0  9993
2 66290  53.1593 320.7853 0001279 105.0261 255.0889 15.49362842  5010
STARLINK-35800          
1 66291U 25247AC  25329.08402120  .00037658  00000+0  68117-3 0  9996
2 66291  53.1593 320.4710 0001195 100.5897 259.5247 15.49338378  5027
STARLINK-35798          
1 66292U 25247AD  25329.08436343  .00058890  00000+0  10571-2 0  9992
2 66292  53.1591 320.4734 0001376  96.2247 263.8919 15.49358627  4979
LVM3 R/B                
1 66310U 25249A   25328.98519713  .00035742  24525-6  10054-2 0  9998
2 66310  21.3468 147.6900 6672471 201.4158 106.7019  3.13707567   725
CMS-03 (GSAT-7R)        
1 66311U 25249B   25329.10207583 -.00000239  00000+0  00000+0 0  9999
2 66311   0.1862 271.6970 0004539 196.5725  86.3078  1.00271950   304
YAOGAN-46               
1 66313U 25250A   25323.71050301 -.00000009  00000+0  00000+0 0  9993
2 66313  20.0323 106.9378 0049242 131.7872 228.6447  5.35115933   968
SENTINEL-1D             
1 66315U 25251A   25329.03742494  .00000232  00000+0  58268-4 0  9999
2 66315  98.1939 334.2934 0001445 182.5490 177.5703 14.59751065  2952
