CCSDS_OMM_VERS = 2.0
CREATION_DATE  = 
ORIGINATOR     = 

OBJECT_NAME    = STARLINK-35819
OBJECT_ID      = 2025-247W
CENTER_NAME    = EARTH
REF_FRAME      = TEME
TIME_SYSTEM    = UTC
MEAN_ELEMENT_THEORY = SGP/SGP4

EPOCH          = 2025-11-25T02:04:27.305760
MEAN_MOTION    = 15.49344448
ECCENTRICITY   = .0001378
INCLINATION    = 53.1590
RA_OF_ASC_NODE = 320.4894
ARG_OF_PERICENTER = 104.5487
MEAN_ANOMALY   = 255.5675

EPHEMERIS_TYPE = 0
CLASSIFICATION_TYPE = U
NORAD_CAT_ID   = 66285
ELEMENT_SET_NO = 999
REV_AT_EPOCH   = 497
BSTAR          = .16214E-2
MEAN_MOTION_DOT = .90896E-3
MEAN_MOTION_DDOT = 0

CCSDS_OMM_VERS = 2.0
CREATION_DATE  = 
ORIGINATOR     = 

OBJECT_NAME    = STARLINK-35783
OBJECT_ID      = 2025-247X
CENTER_NAME    = EARTH
REF_FRAME      = TEME
TIME_SYSTEM    = UTC
MEAN_ELEMENT_THEORY = SGP/SGP4

EPOCH          = 2025-11-25T02:03:59.599008
MEAN_MOTION    = 15.49292987
ECCENTRICITY   = .0000699
INCLINATION    = 53.1591
RA_OF_ASC_NODE = 320.4854
ARG_OF_PERICENTER = 97.8328
MEAN_ANOMALY   = 262.2760

EPHEMERIS_TYPE = 0
CLASSIFICATION_TYPE = U
NORAD_CAT_ID   = 66286
ELEMENT_SET_NO = 999
REV_AT_EPOCH   = 497
BSTAR          = .24318E-2
MEAN_MOTION_DOT = .137119E-2
MEAN_MOTION_DDOT = 0

CCSDS_OMM_VERS = 2.0
CREATION_DATE  = 
ORIGINATOR     = 

OBJECT_NAME    = STARLINK-34884
OBJECT_ID      = 2025-247Y
CENTER_NAME    = EARTH
REF_FRAME      = TEME
TIME_SYSTEM    = UTC
MEAN_ELEMENT_THEORY = SGP/SGP4

EPOCH          = 2025-11-25T02:03:26.527680
MEAN_MOTION    = 15.49350090
ECCENTRICITY   = .0001557
INCLINATION    = 53.1592
RA_OF_ASC_NODE = 320.4835
ARG_OF_PERICENTER = 89.1758
MEAN_ANOMALY   = 270.9429

EPHEMERIS_TYPE = 0
CLASSIFICATION_TYPE = U
NORAD_CAT_ID   = 66287
ELEMENT_SET_NO = 999
REV_AT_EPOCH   = 497
BSTAR          = .33681E-3
MEAN_MOTION_DOT = .18354E-3
MEAN_MOTION_DDOT = 0

CCSDS_OMM_VERS = 2.0
CREATION_DATE  = 
ORIGINATOR     = 

OBJECT_NAME    = STARLINK-34896
OBJECT_ID      = 2025-247Z
CENTER_NAME    = EARTH
REF_FRAME      = TEME
TIME_SYSTEM    = UTC
MEAN_ELEMENT_THEORY = SGP/SGP4

EPOCH          = 2025-11-25T02:02:58.051104
MEAN_MOTION    = 15.49348102
ECCENTRICITY   = .0001274
INCLINATION    = 53.1591
RA_OF_ASC_NODE = 320.4814
ARG_OF_PERICENTER = 102.6608
MEAN_ANOMALY   = 257.4544

EPHEMERIS_TYPE = 0
CLASSIFICATION_TYPE = U
NORAD_CAT_ID   = 66288
ELEMENT_SET_NO = 999
REV_AT_EPOCH   = 497
BSTAR          = .2E-2
MEAN_MOTION_DOT = .112553E-2
MEAN_MOTION_DDOT = 0

CCSDS_OMM_VERS = 2.0
CREATION_DATE  = 
ORIGINATOR     = 

OBJECT_NAME    = STARLINK-35802
OBJECT_ID      = 2025-247AA
CENTER_NAME    = EARTH
REF_FRAME      = TEME
TIME_SYSTEM    = UTC
MEAN_ELEMENT_THEORY = SGP/SGP4

EPOCH          = 2025-11-25T02:02:28.533408
MEAN_MOTION    = 15.49338125
ECCENTRICITY   = .0001287
INCLINATION    = 53.1588
RA_OF_ASC_NODE = 320.4794
ARG_OF_PERICENTER = 89.3997
MEAN_ANOMALY   = 270.7159

EPHEMERIS_TYPE = 0
CLASSIFICATION_TYPE = U
NORAD_CAT_ID   = 66289
ELEMENT_SET_NO = 999
REV_AT_EPOCH   = 497
BSTAR          = .14235E-2
MEAN_MOTION_DOT = .79616E-3
MEAN_MOTION_DDOT = 0

CCSDS_OMM_VERS = 2.0
CREATION_DATE  = 
ORIGINATOR     = 

OBJECT_NAME    = STARLINK-35799
OBJECT_ID      = 2025-247AB
CENTER_NAME    = EARTH
REF_FRAME      = TEME
TIME_SYSTEM    = UTC
MEAN_ELEMENT_THEORY = SGP/SGP4

EPOCH          = 2025-11-25T00:29:05.263584
MEAN_MOTION    = 15.49362842
ECCENTRICITY   = .0001279
INCLINATION    = 53.1593
RA_OF_ASC_NODE = 320.7853
ARG_OF_PERICENTER = 105.0261
MEAN_ANOMALY   = 255.0889

EPHEMERIS_TYPE = 0
CLASSIFICATION_TYPE = U
NORAD_CAT_ID   = 66290
ELEMENT_SET_NO = 999
REV_AT_EPOCH   = 501
BSTAR          = .13917E-2
MEAN_MOTION_DOT = .77878E-3
MEAN_MOTION_DDOT = 0

CCSDS_OMM_VERS = 2.0
CREATION_DATE  = 
ORIGINATOR     = 

OBJECT_NAME    = STARLINK-35800
OBJECT_ID      = 2025-247AC
CENTER_NAME    = EARTH
REF_FRAME      = TEME
TIME_SYSTEM    = UTC
MEAN_ELEMENT_THEORY = SGP/SGP4

EPOCH          = 2025-11-25T02:00:59.431680
MEAN_MOTION    = 15.49338378
ECCENTRICITY   = .0001195
INCLINATION    = 53.1593
RA_OF_ASC_NODE = 320.4710
ARG_OF_PERICENTER = 100.5897
MEAN_ANOMALY   = 259.5247

EPHEMERIS_TYPE = 0
CLASSIFICATION_TYPE = U
NORAD_CAT_ID   = 66291
ELEMENT_SET_NO = 999
REV_AT_EPOCH   = 502
BSTAR          = .68117E-3
MEAN_MOTION_DOT = .37658E-3
MEAN_MOTION_DDOT = 0

CCSDS_OMM_VERS = 2.0
CREATION_DATE  = 
ORIGINATOR     = 

OBJECT_NAME    = STARLINK-35798
OBJECT_ID      = 2025-247AD
CENTER_NAME    = EARTH
REF_FRAME      = TEME
TIME_SYSTEM    = UTC
MEAN_ELEMENT_THEORY = SGP/SGP4

EPOCH          = 2025-11-25T02:01:29.000352
MEAN_MOTION    = 15.49358627
ECCENTRICITY   = .0001376
INCLINATION    = 53.1591
RA_OF_ASC_NODE = 320.4734
ARG_OF_PERICENTER = 96.2247
MEAN_ANOMALY   = 263.8919

EPHEMERIS_TYPE = 0
CLASSIFICATION_TYPE = U
NORAD_CAT_ID   = 66292
ELEMENT_SET_NO = 999
REV_AT_EPOCH   = 497
BSTAR          = .10571E-2
MEAN_MOTION_DOT = .5889E-3
MEAN_MOTION_DDOT = 0

CCSDS_OMM_VERS = 2.0
CREATION_DATE  = 
ORIGINATOR     = 

OBJECT_NAME    = LVM3 R/B
OBJECT_ID      = 2025-249A
CENTER_NAME    = EARTH
REF_FRAME      = TEME
TIME_SYSTEM    = UTC
MEAN_ELEMENT_THEORY = SGP/SGP4

EPOCH          = 2025-11-24T23:38:41.032032
MEAN_MOTION    = 3.13707567
ECCENTRICITY   = .6672471
INCLINATION    = 21.3468
RA_OF_ASC_NODE = 147.6900
ARG_OF_PERICENTER = 201.4158
MEAN_ANOMALY   = 106.7019

EPHEMERIS_TYPE = 0
CLASSIFICATION_TYPE = U
NORAD_CAT_ID   = 66310
ELEMENT_SET_NO = 999
REV_AT_EPOCH   = 72
BSTAR          = .10054E-2
MEAN_MOTION_DOT = .35742E-3
MEAN_MOTION_DDOT = .24525E-6

CCSDS_OMM_VERS = 2.0
CREATION_DATE  = 
ORIGINATOR     = 

OBJECT_NAME    = CMS-03 (GSAT-7R)
OBJECT_ID      = 2025-249B
CENTER_NAME    = EARTH
REF_FRAME      = TEME
TIME_SYSTEM    = UTC
MEAN_ELEMENT_THEORY = SGP/SGP4

EPOCH          = 2025-11-25T02:26:59.351712
MEAN_MOTION    = 1.00271950
ECCENTRICITY   = .0004539
INCLINATION    = 0.1862
RA_OF_ASC_NODE = 271.6970
ARG_OF_PERICENTER = 196.5725
MEAN_ANOMALY   = 86.3078

EPHEMERIS_TYPE = 0
CLASSIFICATION_TYPE = U
NORAD_CAT_ID   = 66311
ELEMENT_SET_NO = 999
REV_AT_EPOCH   = 30
BSTAR          = 0
MEAN_MOTION_DOT = -.239E-5
MEAN_MOTION_DDOT = 0

CCSDS_OMM_VERS = 2.0
CREATION_DATE  = 
ORIGINATOR     = 

OBJECT_NAME    = YAOGAN-46
OBJECT_ID      = 2025-250A
CENTER_NAME    = EARTH
REF_FRAME      = TEME
TIME_SYSTEM    = UTC
MEAN_ELEMENT_THEORY = SGP/SGP4

EPOCH          = 2025-11-19T17:03:07.460064
MEAN_MOTION    = 5.35115933
ECCENTRICITY   = .00492424
INCLINATION    = 20.0323
RA_OF_ASC_NODE = 106.9378
ARG_OF_PERICENTER = 131.7872
MEAN_ANOMALY   = 228.6447

EPHEMERIS_TYPE = 0
CLASSIFICATION_TYPE = U
NORAD_CAT_ID   = 66313
ELEMENT_SET_NO = 999
REV_AT_EPOCH   = 96
BSTAR          = 0
MEAN_MOTION_DOT = -.9E-7
MEAN_MOTION_DDOT = 0

CCSDS_OMM_VERS = 2.0
CREATION_DATE  = 
ORIGINATOR     = 

OBJECT_NAME    = SENTINEL-1D
OBJECT_ID      = 2025-251A
CENTER_NAME    = EARTH
REF_FRAME      = TEME
TIME_SYSTEM    = UTC
MEAN_ELEMENT_THEORY = SGP/SGP4

EPOCH          = 2025-11-25T00:53:53.514816
MEAN_MOTION    = 14.59751065
ECCENTRICITY   = .0001445
INCLINATION    = 98.1939
RA_OF_ASC_NODE = 334.2934
ARG_OF_PERICENTER = 182.5490
MEAN_ANOMALY   = 177.5703

EPHEMERIS_TYPE = 0
CLASSIFICATION_TYPE = U
NORAD_CAT_ID   = 66315
ELEMENT_SET_NO = 999
REV_AT_EPOCH   = 295
BSTAR          = .58268E-4
MEAN_MOTION_DOT = .232E-5
MEAN_MOTION_DDOT = 0

